{
  "norad_id": 58381,
  "name": "STARLINK-30923",
  "history": [
    {
      "epoch": "2026-03-28T18:53:37.549824",
      "apogee_km": 475.7243156147597,
      "perigee_km": 474.6837043158066,
      "latitude_deg": -22.179813353521027,
      "longitude_deg": 93.67505536018871,
      "semi_major_axis_km": 6853.341009965283,
      "eccentricity": 7.592e-05,
      "inclination_deg": 53.1606,
      "raan_deg": 272.4428,
      "arg_perigee_deg": 71.1748,
      "mean_anomaly_deg": 288.9336,
      "mean_motion_rev_day": 15.30203704
    },
    {
      "epoch": "2026-03-28T22:01:44.037120",
      "apogee_km": 475.80128070104365,
      "perigee_km": 474.6142813849665,
      "latitude_deg": -30.936348715418195,
      "longitude_deg": 106.21559680020437,
      "semi_major_axis_km": 6853.344781043005,
      "eccentricity": 8.66e-05,
      "inclination_deg": 53.1605,
      "raan_deg": 271.8364,
      "arg_perigee_deg": 83.3001,
      "mean_anomaly_deg": 276.8098,
      "mean_motion_rev_day": 15.30202441
    }
  ]
}